start=new Date('2022-08-19T00:00:00.000Z').valueOf();
sats=[{"OBJECT_ID":"2021-024A","NORAD_CAT_ID":"47977","MEAN_ANOMALY":"274.0996","DECAY_DATE":null,"TLE_LINE2":"2 47977  53.0584  37.8028 0000811  86.0086 274.0996 15.06401280 78400","INCLINATION":"53.0584","BSTAR":"0.00012088000000","GP_ID":"210449619","SEMIMAJOR_AXIS":"6925.345","RA_OF_ASC_NODE":"37.8028","FILE":"3539467","MEAN_ELEMENT_THEORY":"SGP4","CLASSIFICATION_TYPE":"U","OBJECT_TYPE":"PAYLOAD","REV_AT_EPOCH":"7840","CENTER_NAME":"EARTH","ARG_OF_PERICENTER":"86.0086","LAUNCH_DATE":"2021-03-24","MEAN_MOTION_DDOT":"0.0000000000000","TIME_SYSTEM":"UTC","ELEMENT_SET_NO":"999","REF_FRAME":"TEME","MEAN_MOTION":"15.06401280","RCS_SIZE":"LARGE","APOAPSIS":"547.771","PERIOD":"95.592","OBJECT_NAME":"STARLINK-2087","MEAN_MOTION_DOT":"0.00001520","ECCENTRICITY":"0.00008110","SITE":"AFETR","TLE_LINE1":"1 47977U 21024A   22230.74860203  .00001520  00000-0  12088-3 0  9992","COUNTRY_CODE":"US","EPOCH":"2022-08-18T17:57:59.215392","PERIAPSIS":"546.648","EPHEMERIS_TYPE":"0"},{"SITE":"AFETR","TLE_LINE1":"1 47978U 21024B   22230.50440783  .00002493  00000-0  18614-3 0  9995","COUNTRY_CODE":"US","EPOCH":"2022-08-18T12:06:20.836512","PERIAPSIS":"546.220","EPHEMERIS_TYPE":"0","TIME_SYSTEM":"UTC","ELEMENT_SET_NO":"999","MEAN_MOTION_DDOT":"0.0000000000000","REF_FRAME":"TEME","APOAPSIS":"548.152","RCS_SIZE":"LARGE","MEAN_MOTION":"15.06408878","MEAN_MOTION_DOT":"0.00002493","PERIOD":"95.592","OBJECT_NAME":"STARLINK-1647","ECCENTRICITY":"0.00013950","MEAN_ELEMENT_THEORY":"SGP4","CLASSIFICATION_TYPE":"U","OBJECT_TYPE":"PAYLOAD","CENTER_NAME":"EARTH","ARG_OF_PERICENTER":"81.4967","LAUNCH_DATE":"2021-03-24","REV_AT_EPOCH":"7874","OBJECT_ID":"2021-024B","NORAD_CAT_ID":"47978","MEAN_ANOMALY":"278.6180","DECAY_DATE":null,"BSTAR":"0.00018614000000","SEMIMAJOR_AXIS":"6925.321","GP_ID":"210440432","TLE_LINE2":"2 47978  53.0554  48.8821 0001395  81.4967 278.6180 15.06408878 78748","INCLINATION":"53.0554","FILE":"3539281","RA_OF_ASC_NODE":"48.8821"},{"FILE":"3539615","RA_OF_ASC_NODE":"342.6797","INCLINATION":"53.0565","TLE_LINE2":"2 47979  53.0565 342.6797 0000968  68.9618 291.1474 15.06420271 79698","SEMIMAJOR_AXIS":"6925.286","GP_ID":"210473912","BSTAR":"0.00029757000000","DECAY_DATE":null,"MEAN_ANOMALY":"291.1474","NORAD_CAT_ID":"47979","OBJECT_ID":"2021-024C","REV_AT_EPOCH":"7969","ARG_OF_PERICENTER":"68.9618","LAUNCH_DATE":"2021-03-24","CENTER_NAME":"EARTH","OBJECT_TYPE":"PAYLOAD","CLASSIFICATION_TYPE":"U","MEAN_ELEMENT_THEORY":"SGP4","OBJECT_NAME":"STARLINK-2325","PERIOD":"95.591","MEAN_MOTION_DOT":"0.00004156","ECCENTRICITY":"0.00009680","MEAN_MOTION":"15.06420271","RCS_SIZE":"LARGE","APOAPSIS":"547.822","REF_FRAME":"TEME","MEAN_MOTION_DDOT":"0.0000000000000","ELEMENT_SET_NO":"999","TIME_SYSTEM":"UTC","EPHEMERIS_TYPE":"0","PERIAPSIS":"546.481","EPOCH":"2022-08-18T18:34:27.436224","COUNTRY_CODE":"US","TLE_LINE1":"1 47979U 21024C   22230.77392866  .00004156  00000-0  29757-3 0  9991","SITE":"AFETR"},{"APOAPSIS":"548.198","MEAN_MOTION":"15.06402004","RCS_SIZE":"LARGE","PERIOD":"95.592","MEAN_MOTION_DOT":"0.00002794","ECCENTRICITY":"0.00014300","OBJECT_NAME":"STARLINK-2312","TIME_SYSTEM":"UTC","ELEMENT_SET_NO":"999","MEAN_MOTION_DDOT":"0.0000000000000","REF_FRAME":"TEME","PERIAPSIS":"546.217","EPHEMERIS_TYPE":"0","SITE":"AFETR","TLE_LINE1":"1 47980U 21024D   22230.46249848  .00002794  00000-0  20635-3 0  9992","COUNTRY_CODE":"US","EPOCH":"2022-08-18T11:05:59.868672","BSTAR":"0.00020635000000","GP_ID":"210441915","SEMIMAJOR_AXIS":"6925.342","TLE_LINE2":"2 47980  53.0572 324.2079 0001430  97.2852 262.8300 15.06402004 79920","INCLINATION":"53.0572","FILE":"3539281","RA_OF_ASC_NODE":"324.2079","OBJECT_ID":"2021-024D","NORAD_CAT_ID":"47980","MEAN_ANOMALY":"262.8300","DECAY_DATE":null,"OBJECT_TYPE":"PAYLOAD","CENTER_NAME":"EARTH","ARG_OF_PERICENTER":"97.2852","LAUNCH_DATE":"2021-03-24","REV_AT_EPOCH":"7992","MEAN_ELEMENT_THEORY":"SGP4","CLASSIFICATION_TYPE":"U"},{"PERIOD":"95.592","MEAN_MOTION_DOT":"0.00002567","OBJECT_NAME":"STARLINK-2303","ECCENTRICITY":"0.00012130","RCS_SIZE":"LARGE","MEAN_MOTION":"15.06403316","APOAPSIS":"548.043","REF_FRAME":"TEME","MEAN_MOTION_DDOT":"0.0000000000000","ELEMENT_SET_NO":"999","TIME_SYSTEM":"UTC","EPHEMERIS_TYPE":"0","PERIAPSIS":"546.363","EPOCH":"2022-08-18T11:50:25.405440","COUNTRY_CODE":"US","TLE_LINE1":"1 47981U 21024E   22230.49334960  .00002567  00000-0  19115-3 0  9995","SITE":"AFETR","FILE":"3539471","RA_OF_ASC_NODE":"48.9310","INCLINATION":"53.0558","TLE_LINE2":"2 47981  53.0558  48.9310 0001213  91.6616 268.4512 15.06403316 78213","GP_ID":"210450187","SEMIMAJOR_AXIS":"6925.338","BSTAR":"0.00019115000000","DECAY_DATE":null,"MEAN_ANOMALY":"268.4512","NORAD_CAT_ID":"47981","OBJECT_ID":"2021-024E","REV_AT_EPOCH":"7821","LAUNCH_DATE":"2021-03-24","ARG_OF_PERICENTER":"91.6616","CENTER_NAME":"EARTH","OBJECT_TYPE":"PAYLOAD","CLASSIFICATION_TYPE":"U","MEAN_ELEMENT_THEORY":"SGP4"},{"MEAN_ELEMENT_THEORY":"SGP4","CLASSIFICATION_TYPE":"U","OBJECT_TYPE":"PAYLOAD","ARG_OF_PERICENTER":"77.8173","LAUNCH_DATE":"2021-03-24","CENTER_NAME":"EARTH","REV_AT_EPOCH":"7918","NORAD_CAT_ID":"47982","OBJECT_ID":"2021-024F","DECAY_DATE":null,"MEAN_ANOMALY":"282.2974","GP_ID":"210450188","SEMIMAJOR_AXIS":"6925.364","BSTAR":"0.00007655900000","INCLINATION":"53.0562","TLE_LINE2":"2 47982  53.0562 339.0203 0001417  77.8173 282.2974 15.06394962 79183","RA_OF_ASC_NODE":"339.0203","FILE":"3539471","TLE_LINE1":"1 47982U 21024F   22230.47400526  .00000859  00000-0  76559-4 0  9994","SITE":"AFETR","EPOCH":"2022-08-18T11:22:34.054464","COUNTRY_CODE":"US","EPHEMERIS_TYPE":"0","PERIAPSIS":"546.248","ELEMENT_SET_NO":"999","TIME_SYSTEM":"UTC","MEAN_MOTION_DDOT":"0.0000000000000","REF_FRAME":"TEME","APOAPSIS":"548.210","MEAN_MOTION":"15.06394962","RCS_SIZE":"LARGE","PERIOD":"95.592","MEAN_MOTION_DOT":"0.00000859","OBJECT_NAME":"STARLINK-2317","ECCENTRICITY":"0.00014170"},{"DECAY_DATE":null,"MEAN_ANOMALY":"270.2682","NORAD_CAT_ID":"47985","OBJECT_ID":"2021-024J","RA_OF_ASC_NODE":"344.1692","FILE":"3539281","INCLINATION":"53.0553","TLE_LINE2":"2 47985  53.0553 344.1692 0001370  89.8464 270.2682 15.06406818 79580","SEMIMAJOR_AXIS":"6925.328","GP_ID":"210441683","BSTAR":"0.00047145000000","CLASSIFICATION_TYPE":"U","MEAN_ELEMENT_THEORY":"SGP4","REV_AT_EPOCH":"7958","ARG_OF_PERICENTER":"89.8464","LAUNCH_DATE":"2021-03-24","CENTER_NAME":"EARTH","OBJECT_TYPE":"PAYLOAD","REF_FRAME":"TEME","MEAN_MOTION_DDOT":"0.0000000000000","ELEMENT_SET_NO":"999","TIME_SYSTEM":"UTC","MEAN_MOTION_DOT":"0.00006749","PERIOD":"95.592","OBJECT_NAME":"STARLINK-2308","ECCENTRICITY":"0.00013700","RCS_SIZE":"LARGE","MEAN_MOTION":"15.06406818","APOAPSIS":"548.141","EPOCH":"2022-08-18T11:29:53.223936","COUNTRY_CODE":"US","TLE_LINE1":"1 47985U 21024J   22230.47908824  .00006749  00000-0  47145-3 0  9993","SITE":"AFETR","EPHEMERIS_TYPE":"0","PERIAPSIS":"546.244"},{"OBJECT_TYPE":"PAYLOAD","LAUNCH_DATE":"2021-03-24","ARG_OF_PERICENTER":"11.1871","CENTER_NAME":"EARTH","REV_AT_EPOCH":"8014","MEAN_ELEMENT_THEORY":"SGP4","CLASSIFICATION_TYPE":"U","GP_ID":"210478618","SEMIMAJOR_AXIS":"6643.147","BSTAR":"0.00433020000000","INCLINATION":"53.0242","TLE_LINE2":"2 47988  53.0242 274.8238 0003903  11.1871  17.6342 16.03400446 80146","FILE":"3539618","RA_OF_ASC_NODE":"274.8238","NORAD_CAT_ID":"47988","OBJECT_ID":"2021-024M","DECAY_DATE":null,"MEAN_ANOMALY":"17.6342","EPHEMERIS_TYPE":"0","PERIAPSIS":"262.419","TLE_LINE1":"1 47988U 21024M   22231.11536661  .02538660  60085-2  43302-2 0  9999","SITE":"AFETR","EPOCH":"2022-08-19T02:46:07.675104","COUNTRY_CODE":"US","APOAPSIS":"267.604","MEAN_MOTION":"16.03400446","RCS_SIZE":"LARGE","PERIOD":"89.809","MEAN_MOTION_DOT":"0.02538660","OBJECT_NAME":"STARLINK-2306","ECCENTRICITY":"0.00039030","ELEMENT_SET_NO":"999","TIME_SYSTEM":"UTC","MEAN_MOTION_DDOT":"0.0060085000000","REF_FRAME":"TEME"},{"SITE":"AFETR","TLE_LINE1":"1 47989U 21024N   22230.73016529  .00002823  00000-0  20826-3 0  9994","COUNTRY_CODE":"US","EPOCH":"2022-08-18T17:31:26.281056","PERIAPSIS":"546.381","EPHEMERIS_TYPE":"0","TIME_SYSTEM":"UTC","ELEMENT_SET_NO":"999","MEAN_MOTION_DDOT":"0.0000000000000","REF_FRAME":"TEME","APOAPSIS":"547.952","RCS_SIZE":"LARGE","MEAN_MOTION":"15.06415251","MEAN_MOTION_DOT":"0.00002823","PERIOD":"95.591","OBJECT_NAME":"STARLINK-2305","ECCENTRICITY":"0.00011340","MEAN_ELEMENT_THEORY":"SGP4","CLASSIFICATION_TYPE":"U","OBJECT_TYPE":"PAYLOAD","CENTER_NAME":"EARTH","LAUNCH_DATE":"2021-03-24","ARG_OF_PERICENTER":"103.3724","REV_AT_EPOCH":"7998","OBJECT_ID":"2021-024N","NORAD_CAT_ID":"47989","MEAN_ANOMALY":"256.7391","DECAY_DATE":null,"BSTAR":"0.00020826000000","GP_ID":"210475413","SEMIMAJOR_AXIS":"6925.302","TLE_LINE2":"2 47989  53.0540 317.8940 0001134 103.3724 256.7391 15.06415251 79983","INCLINATION":"53.0540","FILE":"3539615","RA_OF_ASC_NODE":"317.8940"},{"CLASSIFICATION_TYPE":"U","MEAN_ELEMENT_THEORY":"SGP4","REV_AT_EPOCH":"7946","CENTER_NAME":"EARTH","ARG_OF_PERICENTER":"80.4253","LAUNCH_DATE":"2021-03-24","OBJECT_TYPE":"PAYLOAD","MEAN_ANOMALY":"279.6881","DECAY_DATE":null,"OBJECT_ID":"2021-024P","NORAD_CAT_ID":"47990","FILE":"3539385","RA_OF_ASC_NODE":"318.9721","TLE_LINE2":"2 47990  53.0555 318.9721 0001287  80.4253 279.6881 15.06396421 79469","INCLINATION":"53.0555","BSTAR":"0.00009486100000","SEMIMAJOR_AXIS":"6925.360","GP_ID":"210447452","COUNTRY_CODE":"US","EPOCH":"2022-08-18T11:35:50.233920","SITE":"AFETR","TLE_LINE1":"1 47990U 21024P   22230.48322030  .00001132  00000-0  94861-4 0  9998","PERIAPSIS":"546.333","EPHEMERIS_TYPE":"0","REF_FRAME":"TEME","MEAN_MOTION_DDOT":"0.0000000000000","TIME_SYSTEM":"UTC","ELEMENT_SET_NO":"999","PERIOD":"95.592","OBJECT_NAME":"STARLINK-2307","MEAN_MOTION_DOT":"0.00001132","ECCENTRICITY":"0.00012870","RCS_SIZE":"LARGE","MEAN_MOTION":"15.06396421","APOAPSIS":"548.116"}];
